{
  "norad_id": 63560,
  "name": "STARLINK-11592 [DTC]",
  "history": [
    {
      "epoch": "2026-03-28T05:09:20.898144Z",
      "apogee_km": 357.9281853118973,
      "perigee_km": 354.40250866115457,
      "latitude_deg": -2.857864787948164e-05,
      "longitude_deg": 139.02291687893995,
      "height_km": 356.30802311322464,
      "semi_major_axis_km": 6734.302346986526,
      "eccentricity": 0.00026177,
      "inclination_deg": 43.0018,
      "raan_deg": 41.9985,
      "arg_perigee_deg": 257.9103,
      "mean_anomaly_deg": 102.1471,
      "mean_motion_rev_day": 15.70955365
    },
    {
      "epoch": "2026-03-30T04:27:42.427008Z",
      "apogee_km": 357.5278505940378,
      "perigee_km": 355.35258215314934,
      "latitude_deg": -1.0900670851054543e-05,
      "longitude_deg": 135.6100449698512,
      "height_km": 356.30225019111674,
      "semi_major_axis_km": 6734.577216373594,
      "eccentricity": 0.0001615,
      "inclination_deg": 42.9989,
      "raan_deg": 30.1181,
      "arg_perigee_deg": 265.277,
      "mean_anomaly_deg": 94.7913,
      "mean_motion_rev_day": 15.70859189
    },
    {
      "epoch": "2026-03-30T04:27:42.427872Z",
      "apogee_km": 357.5279852855829,
      "perigee_km": 355.35244746160515,
      "latitude_deg": -9.346232691101063e-06,
      "longitude_deg": 135.6100430176465,
      "height_km": 356.30226128117175,
      "semi_major_axis_km": 6734.577216373594,
      "eccentricity": 0.00016152,
      "inclination_deg": 42.9989,
      "raan_deg": 30.1181,
      "arg_perigee_deg": 265.277,
      "mean_anomaly_deg": 94.7913,
      "mean_motion_rev_day": 15.70859189
    },
    {
      "epoch": "2026-03-30T05:59:16.036224Z",
      "apogee_km": 357.48553023914246,
      "perigee_km": 355.2415946517358,
      "latitude_deg": 1.028636447623873e-05,
      "longitude_deg": 112.27345853808978,
      "height_km": 356.1790760437833,
      "semi_major_axis_km": 6734.500562445439,
      "eccentricity": 0.0001666,
      "inclination_deg": 43.0004,
      "raan_deg": 29.7342,
      "arg_perigee_deg": 267.8129,
      "mean_anomaly_deg": 92.2548,
      "mean_motion_rev_day": 15.70886009
    },
    {
      "epoch": "2026-03-30T19:43:17.927328Z",
      "apogee_km": 357.0327394677579,
      "perigee_km": 354.77373832921603,
      "latitude_deg": 1.2832081183759647e-05,
      "longitude_deg": -97.74764721815497,
      "height_km": 356.0569532523528,
      "semi_major_axis_km": 6734.040238898487,
      "eccentricity": 0.00016773,
      "inclination_deg": 42.9999,
      "raan_deg": 26.285,
      "arg_perigee_deg": 250.2752,
      "mean_anomaly_deg": 109.7935,
      "mean_motion_rev_day": 15.71047085
    },
    {
      "epoch": "2026-03-31T20:08:15.978048Z",
      "apogee_km": 357.22918081830176,
      "perigee_km": 355.326035250072,
      "latitude_deg": -3.416129532960065e-05,
      "longitude_deg": -111.1243085764938,
      "height_km": 356.32169637031734,
      "semi_major_axis_km": 6734.414608034187,
      "eccentricity": 0.0001413,
      "inclination_deg": 43.0002,
      "raan_deg": 20.153,
      "arg_perigee_deg": 253.4096,
      "mean_anomaly_deg": 106.6616,
      "mean_motion_rev_day": 15.70916084
    },
    {
      "epoch": "2026-04-01T03:46:03.827136Z",
      "apogee_km": 357.9671955686972,
      "perigee_km": 354.639035263659,
      "latitude_deg": 2.7248443684752462e-05,
      "longitude_deg": 132.19643488093865,
      "height_km": 355.82863711827423,
      "semi_major_axis_km": 6734.440115416178,
      "eccentricity": 0.0002471,
      "inclination_deg": 43.0019,
      "raan_deg": 18.2364,
      "arg_perigee_deg": 278.5695,
      "mean_anomaly_deg": 81.4893,
      "mean_motion_rev_day": 15.70907159
    },
    {
      "epoch": "2026-04-02T11:48:48.553632Z",
      "apogee_km": 357.67399660600404,
      "perigee_km": 354.69001985345767,
      "latitude_deg": 2.8991822743213524e-05,
      "longitude_deg": 2.1466052337789154,
      "height_km": 355.77569192163236,
      "semi_major_axis_km": 6734.319008229731,
      "eccentricity": 0.00022155,
      "inclination_deg": 43.001,
      "raan_deg": 10.189,
      "arg_perigee_deg": 276.9104,
      "mean_anomaly_deg": 83.1512,
      "mean_motion_rev_day": 15.70949535
    },
    {
      "epoch": "2026-04-03T18:20:00.845088Z",
      "apogee_km": 357.8516116544288,
      "perigee_km": 354.6096870680267,
      "latitude_deg": -2.1360243047674704e-05,
      "longitude_deg": -104.5734777477944,
      "height_km": 355.01904990383076,
      "semi_major_axis_km": 6734.367649361227,
      "eccentricity": 0.0002407,
      "inclination_deg": 42.9997,
      "raan_deg": 2.5236,
      "arg_perigee_deg": 307.4011,
      "mean_anomaly_deg": 52.6637,
      "mean_motion_rev_day": 15.70932515
    },
    {
      "epoch": "2026-04-04T18:44:56.692608Z",
      "apogee_km": 357.6468724401502,
      "perigee_km": 354.1788367650288,
      "latitude_deg": -3.3593408447024746e-05,
      "longitude_deg": -117.94039905128841,
      "height_km": 356.43263885536425,
      "semi_major_axis_km": 6734.049854602589,
      "eccentricity": 0.0002575,
      "inclination_deg": 42.999,
      "raan_deg": 356.3921,
      "arg_perigee_deg": 244.4871,
      "mean_anomaly_deg": 115.573,
      "mean_motion_rev_day": 15.7104372
    },
    {
      "epoch": "2026-04-05T10:00:34.529184Z",
      "apogee_km": 356.9078870196781,
      "perigee_km": 356.01205093086537,
      "latitude_deg": 1.3142880575225326e-05,
      "longitude_deg": 8.692570549296809,
      "height_km": 355.94628172898587,
      "semi_major_axis_km": 6734.596968975272,
      "eccentricity": 6.651e-05,
      "inclination_deg": 43.0006,
      "raan_deg": 352.5594,
      "arg_perigee_deg": 309.5895,
      "mean_anomaly_deg": 50.4914,
      "mean_motion_rev_day": 15.70852278
    },
    {
      "epoch": "2026-04-06T02:47:43.636128Z",
      "apogee_km": 357.6790857191536,
      "perigee_km": 355.16615214294507,
      "latitude_deg": -8.599356180998372e-06,
      "longitude_deg": 112.00012953249156,
      "height_km": 356.05474749042406,
      "semi_major_axis_km": 6734.559618931049,
      "eccentricity": 0.00018657,
      "inclination_deg": 43.0002,
      "raan_deg": 348.3443,
      "arg_perigee_deg": 276.4306,
      "mean_anomaly_deg": 83.6349,
      "mean_motion_rev_day": 15.70865346
    },
    {
      "epoch": "2026-04-07T00:09:33.580224Z",
      "apogee_km": 357.5747022680789,
      "perigee_km": 355.2573425730643,
      "latitude_deg": -2.2843359265992205e-05,
      "longitude_deg": 145.29822862902236,
      "height_km": 356.2974415670064,
      "semi_major_axis_km": 6734.553022420571,
      "eccentricity": 0.00017205,
      "inclination_deg": 42.9998,
      "raan_deg": 342.9779,
      "arg_perigee_deg": 264.6141,
      "mean_anomaly_deg": 95.453,
      "mean_motion_rev_day": 15.70867654
    },
    {
      "epoch": "2026-04-08T00:34:30.633888Z",
      "apogee_km": 358.5775264193471,
      "perigee_km": 353.7558996468897,
      "latitude_deg": 2.6098037930688484e-05,
      "longitude_deg": 131.92783097241127,
      "height_km": 355.8651315525758,
      "semi_major_axis_km": 6734.303713033119,
      "eccentricity": 0.00035799,
      "inclination_deg": 43.0016,
      "raan_deg": 336.8479,
      "arg_perigee_deg": 271.7994,
      "mean_anomaly_deg": 88.2464,
      "mean_motion_rev_day": 15.70954887
    },
    {
      "epoch": "2026-04-09T08:37:17.016672Z",
      "apogee_km": 356.6831824936844,
      "perigee_km": 356.03478522035766,
      "latitude_deg": -2.389758436809781e-06,
      "longitude_deg": 1.8681435521459429,
      "height_km": 356.04990305118173,
      "semi_major_axis_km": 6734.49598385702,
      "eccentricity": 4.814e-05,
      "inclination_deg": 42.998,
      "raan_deg": 328.7976,
      "arg_perigee_deg": 75.8013,
      "mean_anomaly_deg": 284.2908,
      "mean_motion_rev_day": 15.70887611
    },
    {
      "epoch": "2026-04-10T07:30:41.008032Z",
      "apogee_km": 357.32457621034337,
      "perigee_km": 355.37292224021803,
      "latitude_deg": -2.0406165029699767e-06,
      "longitude_deg": 11.827718516162511,
      "height_km": 355.25971888303127,
      "semi_major_axis_km": 6734.48574922528,
      "eccentricity": 0.0001449,
      "inclination_deg": 42.999,
      "raan_deg": 323.0472,
      "arg_perigee_deg": 28.2673,
      "mean_anomaly_deg": 331.8273,
      "mean_motion_rev_day": 15.70891192
    },
    {
      "epoch": "2026-04-11T15:33:24.232032Z",
      "apogee_km": 357.42986250140893,
      "perigee_km": 355.81756078704166,
      "latitude_deg": -3.6910924715050824e-06,
      "longitude_deg": -118.21574124146024,
      "height_km": 357.1238563295553,
      "semi_major_axis_km": 6734.760711644225,
      "eccentricity": 0.0001197,
      "inclination_deg": 42.9988,
      "raan_deg": 314.9999,
      "arg_perigee_deg": 205.3165,
      "mean_anomaly_deg": 154.7644,
      "mean_motion_rev_day": 15.7079499
    },
    {
      "epoch": "2026-04-12T22:04:37.226784Z",
      "apogee_km": 357.7640691114011,
      "perigee_km": 355.0715940897271,
      "latitude_deg": 2.8676549748338325e-05,
      "longitude_deg": 135.06132424709622,
      "height_km": 356.1605587771761,
      "semi_major_axis_km": 6734.554831600564,
      "eccentricity": 0.0001999,
      "inclination_deg": 43.0,
      "raan_deg": 307.3345,
      "arg_perigee_deg": 271.2851,
      "mean_anomaly_deg": 88.7788,
      "mean_motion_rev_day": 15.70867021
    },
    {
      "epoch": "2026-04-14T19:51:24.646176Z",
      "apogee_km": 357.54676947174175,
      "perigee_km": 355.37553502745595,
      "latitude_deg": 5.620442233504348e-05,
      "longitude_deg": 154.98586342857413,
      "height_km": 356.0279381971185,
      "semi_major_axis_km": 6734.598152249599,
      "eccentricity": 0.0001612,
      "inclination_deg": 43.0,
      "raan_deg": 295.8367,
      "arg_perigee_deg": 280.9295,
      "mean_anomaly_deg": 79.1392,
      "mean_motion_rev_day": 15.70851864
    }
  ]
}